COMMENT,ORIGINATOR,NORAD_CAT_ID,OBJECT_NAME,OBJECT_TYPE,CLASSIFICATION_TYPE,INTLDES,EPOCH,EPOCH_MICROSECONDS,MEAN_MOTION,ECCENTRICITY,INCLINATION,RA_OF_ASC_NODE,ARG_OF_PERICENTER,MEAN_ANOMALY,EPHEMERIS_TYPE,ELEMENT_SET_NO,REV_AT_EPOCH,BSTAR,MEAN_MOTION_DOT,MEAN_MOTION_DDOT,FILE,TLE_LINE0,TLE_LINE1,TLE_LINE2,OBJECT_ID,OBJECT_NUMBER,SEMIMAJOR_AXIS,PERIOD,APOGEE,PERIGEE,DECAYED
GENERATED VIA SPACETRACK.ORG API,18 SPCS,58292,UMBRA-08,PAYLOAD,U,23174AN,2024-09-28 03:48:16,297344,15.17451529,0.0002414,97.4455,343.115,99.3255,260.8252,0,999,4919,0.0021485,0.00043159,0,4508135,0 UMBRA-08,1 58292U 23174AN  24272.15852196  .00043159  00000-0  21485-2 0  9991,2 58292  97.4455 343.1150 0002414  99.3255 260.8252 15.17451529 49191,2023-174AN,58292,6891.683,94.896,515.212,511.884,1
GENERATED VIA SPACETRACK.ORG API,18 SPCS,58292,UMBRA-08,PAYLOAD,U,23174AN,2024-09-28 22:47:42,905760,15.17543397,0.0002385,97.4457,343.8929,95.8796,264.271,0,999,4931,0.0029237,0.00059038,0,4508501,0 UMBRA-08,1 58292U 23174AN  24272.94980215  .00059038  00000-0  29237-2 0  9998,2 58292  97.4457 343.8929 0002385  95.8796 264.2710 15.17543397 49318,2023-174AN,58292,6891.405,94.890,514.913,511.626,1
GENERATED VIA SPACETRACK.ORG API,18 SPCS,58292,UMBRA-08,PAYLOAD,U,23174AN,2024-09-29 05:07:30,866880,15.17574561,0.0002416,97.4458,344.1523,95.1395,265.0115,0,999,4935,0.0026045,0.00052585,0,4508844,0 UMBRA-08,1 58292U 23174AN  24273.21355170  .00052585  00000-0  26045-2 0  9999,2 58292  97.4458 344.1523 0002416  95.1395 265.0115 15.17574561 49355,2023-174AN,58292,6891.310,94.888,514.840,511.511,1
GENERATED VIA SPACETRACK.ORG API,18 SPCS,58292,UMBRA-08,PAYLOAD,U,23174AN,2024-09-29 11:27:18,286272,15.17608643,0.0002451,97.4456,344.4118,93.4071,266.7443,0,999,4939,0.003308,0.00067005,0,4509465,0 UMBRA-08,1 58292U 23174AN  24273.47729498  .00067005  00000-0  33080-2 0  9995,2 58292  97.4456 344.4118 0002451  93.4071 266.7443 15.17608643 49392,2023-174AN,58292,6891.207,94.886,514.761,511.383,1
GENERATED VIA SPACETRACK.ORG API,18 SPCS,58292,UMBRA-08,PAYLOAD,U,23174AN,2024-09-29 11:27:18,286272,15.17608643,0.0002451,97.4456,344.4118,93.4071,266.7443,0,999,4939,0.003308,0.00067005,0,4509473,0 UMBRA-08,1 58292U 23174AN  24273.47729498  .00067005  00000-0  33080-2 0  9995,2 58292  97.4456 344.4118 0002451  93.4071 266.7443 15.17608643 49392,2023-174AN,58292,6891.207,94.886,514.761,511.383,1
GENERATED VIA SPACETRACK.ORG API,18 SPCS,58292,UMBRA-08,PAYLOAD,U,23174AN,2024-10-01 04:35:43,596384,15.17846223,0.0002451,97.4454,346.0978,87.1502,273.0012,0,999,4965,0.0033376,0.00068076,0,4510842,0 UMBRA-08,1 58292U 23174AN  24275.19147681  .00068076  00000-0  33376-2 0  9991,2 58292  97.4454 346.0978 0002451  87.1502 273.0012 15.17846223 49651,2023-174AN,58292,6890.488,94.871,514.042,510.664,1
GENERATED VIA SPACETRACK.ORG API,18 SPCS,58292,UMBRA-08,PAYLOAD,U,23174AN,2024-10-01 10:55:26,962752,15.17879432,0.0002462,97.4453,346.3573,85.6254,274.5262,0,999,4969,0.0034053,0.00069538,0,4511209,0 UMBRA-08,1 58292U 23174AN  24275.45517318  .00069538  00000-0  34053-2 0  9995,2 58292  97.4453 346.3573 0002462  85.6254 274.5262 15.17879432 49698,2023-174AN,58292,6890.388,94.869,513.949,510.556,1
GENERATED VIA SPACETRACK.ORG API,18 SPCS,58292,UMBRA-08,PAYLOAD,U,23174AN,2024-10-01 18:50:05,531136,15.17917225,0.0002331,97.445,346.6812,84.6284,275.5216,0,999,4974,0.0029377,0.00059966,0,4511491,0 UMBRA-08,1 58292U 23174AN  24275.78478624  .00059966  00000-0  29377-2 0  9994,2 58292  97.4450 346.6812 0002331  84.6284 275.5216 15.17917225 49740,2023-174AN,58292,6890.273,94.867,513.744,510.532,1
GENERATED VIA SPACETRACK.ORG API,18 SPCS,58292,UMBRA-08,PAYLOAD,U,23174AN,2024-10-02 10:39:19,938528,15.18013086,0.00022,97.4443,347.3297,80.9342,279.214,0,999,4984,0.0035551,0.00072912,0,4512109,0 UMBRA-08,1 58292U 23174AN  24276.44398077  .00072912  00000-0  35551-2 0  9998,2 58292  97.4443 347.3297 0002200  80.9342 279.2140 15.18013086 49847,2023-174AN,58292,6889.983,94.861,513.364,510.332,1
GENERATED VIA SPACETRACK.ORG API,18 SPCS,58292,UMBRA-08,PAYLOAD,U,23174AN,2024-10-02 10:39:19,938528,15.18013086,0.00022,97.4443,347.3297,80.9342,279.214,0,999,4984,0.0035551,0.00072912,0,4512136,0 UMBRA-08,1 58292U 23174AN  24276.44398077  .00072912  00000-0  35551-2 0  9998,2 58292  97.4443 347.3297 0002200  80.9342 279.2140 15.18013086 49847,2023-174AN,58292,6889.983,94.861,513.364,510.332,1
GENERATED VIA SPACETRACK.ORG API,18 SPCS,58292,UMBRA-08,PAYLOAD,U,23174AN,2024-10-03 04:03:25,666848,15.18121235,0.0002042,97.4441,348.0426,78.2703,281.876,0,999,4995,0.0033009,0.00067856,0,4512888,0 UMBRA-08,1 58292U 23174AN  24277.16904707  .00067856  00000-0  33009-2 0  9998,2 58292  97.4441 348.0426 0002042  78.2703 281.8760 15.18121235 49957,2023-174AN,58292,6889.656,94.854,512.928,510.114,1
GENERATED VIA SPACETRACK.ORG API,18 SPCS,58292,UMBRA-08,PAYLOAD,U,23174AN,2024-10-03 18:17:37,998240,15.18212252,0.0001974,97.4439,348.6266,71.4197,288.7252,0,999,5004,0.0036742,0.00075817,0,4513462,0 UMBRA-08,1 58292U 23174AN  24277.76224535  .00075817  00000-0  36742-2 0  9991,2 58292  97.4439 348.6266 0001974  71.4197 288.7252 15.18212252 50041,2023-174AN,58292,6889.381,94.848,512.606,509.886,1
GENERATED VIA SPACETRACK.ORG API,18 SPCS,58292,UMBRA-08,PAYLOAD,U,23174AN,2024-10-03 18:17:37,998240,15.18212252,0.0001974,97.4439,348.6266,71.4197,288.7252,0,999,5004,0.0036742,0.00075817,0,4513468,0 UMBRA-08,1 58292U 23174AN  24277.76224535  .00075817  00000-0  36742-2 0  9991,2 58292  97.4439 348.6266 0001974  71.4197 288.7252 15.18212252 50041,2023-174AN,58292,6889.381,94.848,512.606,509.886,1
GENERATED VIA SPACETRACK.ORG API,18 SPCS,58292,UMBRA-08,PAYLOAD,U,23174AN,2024-10-04 03:47:04,296768,15.18286598,0.0001978,97.4439,349.0154,70.6964,289.4484,0,999,5010,0.0040244,0.00083313,0,4513794,0 UMBRA-08,1 58292U 23174AN  24278.15768862  .00083313  00000-0  40244-2 0  9993,2 58292  97.4439 349.0154 0001978  70.6964 289.4484 15.18286598 50105,2023-174AN,58292,6889.156,94.844,512.383,509.658,1
GENERATED VIA SPACETRACK.ORG API,18 SPCS,58292,UMBRA-08,PAYLOAD,U,23174AN,2024-10-04 18:01:10,898112,15.18389083,0.0001944,97.4439,349.5994,64.0126,296.1308,0,999,5019,0.0042867,0.00089079,0,4514403,0 UMBRA-08,1 58292U 23174AN  24278.75082058  .00089079  00000-0  42867-2 0  9993,2 58292  97.4439 349.5994 0001944  64.0126 296.1308 15.18389083 50194,2023-174AN,58292,6888.846,94.837,512.050,509.372,1
GENERATED VIA SPACETRACK.ORG API,18 SPCS,58292,UMBRA-08,PAYLOAD,U,23174AN,2024-10-05 03:30:33,255072,15.18465274,0.0001914,97.4439,349.9882,65.1011,295.0422,0,999,5025,0.0045606,0.00095061,0,4514758,0 UMBRA-08,1 58292U 23174AN  24279.14621823  .00095061  00000-0  45606-2 0  9998,2 58292  97.4439 349.9882 0001914  65.1011 295.0422 15.18465274 50255,2023-174AN,58292,6888.615,94.833,511.799,509.162,1
GENERATED VIA SPACETRACK.ORG API,18 SPCS,58292,UMBRA-08,PAYLOAD,U,23174AN,2024-10-05 05:05:26,832768,15.18477415,0.0001943,97.4439,350.0532,64.4212,295.7223,0,999,5026,0.0045365,0.00094585,0,4515143,0 UMBRA-08,1 58292U 23174AN  24279.21211612  .00094585  00000-0  45365-2 0  9999,2 58292  97.4439 350.0532 0001943  64.4212 295.7223 15.18477415 50264,2023-174AN,58292,6888.579,94.832,511.782,509.105,1
GENERATED VIA SPACETRACK.ORG API,18 SPCS,58292,UMBRA-08,PAYLOAD,U,23174AN,2024-10-05 17:44:34,108224,15.1855576,0.0001948,97.4437,350.5722,57.8801,302.2622,0,999,5034,0.004254,0.0008882,0,4515446,0 UMBRA-08,1 58292U 23174AN  24279.73928366  .00088820  00000-0  42540-2 0  9994,2 58292  97.4437 350.5722 0001948  57.8801 302.2622 15.18555760 50349,2023-174AN,58292,6888.342,94.827,511.548,508.865,1
GENERATED VIA SPACETRACK.ORG API,18 SPCS,58292,UMBRA-08,PAYLOAD,U,23174AN,2024-10-05 17:44:34,108224,15.1855576,0.0001948,97.4437,350.5722,57.8801,302.2622,0,999,5034,0.004254,0.0008882,0,4515455,0 UMBRA-08,1 58292U 23174AN  24279.73928366  .00088820  00000-0  42540-2 0  9994,2 58292  97.4437 350.5722 0001948  57.8801 302.2622 15.18555760 50349,2023-174AN,58292,6888.342,94.827,511.548,508.865,1
GENERATED VIA SPACETRACK.ORG API,18 SPCS,58292,UMBRA-08,PAYLOAD,U,23174AN,2024-10-06 11:08:17,341440,15.18667125,0.0001995,97.4434,351.2856,59.5165,300.6266,0,999,5045,0.0037002,0.00077375,0,4516137,0 UMBRA-08,1 58292U 23174AN  24280.46408960  .00077375  00000-0  37002-2 0  9999,2 58292  97.4434 351.2856 0001995  59.5165 300.6266 15.18667125 50453,2023-174AN,58292,6888.005,94.820,511.244,508.496,1
GENERATED VIA SPACETRACK.ORG API,18 SPCS,58292,UMBRA-08,PAYLOAD,U,23174AN,2024-10-06 11:08:17,341440,15.18667125,0.0001995,97.4434,351.2856,59.5165,300.6266,0,999,5045,0.0037002,0.00077375,0,4516175,0 UMBRA-08,1 58292U 23174AN  24280.46408960  .00077375  00000-0  37002-2 0  9999,2 58292  97.4434 351.2856 0001995  59.5165 300.6266 15.18667125 50453,2023-174AN,58292,6888.005,94.820,511.244,508.496,1
GENERATED VIA SPACETRACK.ORG API,18 SPCS,58292,UMBRA-08,PAYLOAD,U,23174AN,2024-10-06 15:52:55,734816,15.18692623,0.0002013,97.4432,351.48,58.0172,302.1258,0,999,5048,0.003557,0.00074402,0,4516522,0 UMBRA-08,1 58292U 23174AN  24280.66175619  .00074402  00000-0  35570-2 0  9999,2 58292  97.4432 351.4800 0002013  58.0172 302.1258 15.18692623 50488,2023-174AN,58292,6887.928,94.818,511.179,508.406,1
GENERATED VIA SPACETRACK.ORG API,18 SPCS,58292,UMBRA-08,PAYLOAD,U,23174AN,2024-10-07 04:31:55,899552,15.18805173,0.0001937,97.4432,351.9992,58.5652,301.5772,0,999,5056,0.0049746,0.00104855,0,4516813,0 UMBRA-08,1 58292U 23174AN  24281.18884143  .00104855  00000-0  49746-2 0  9992,2 58292  97.4432 351.9992 0001937  58.5652 301.5772 15.18805173 50566,2023-174AN,58292,6887.588,94.811,510.787,508.118,1
GENERATED VIA SPACETRACK.ORG API,18 SPCS,58292,UMBRA-08,PAYLOAD,U,23174AN,2024-10-07 04:31:55,899552,15.18805173,0.0001937,97.4432,351.9992,58.5652,301.5772,0,999,5056,0.0049746,0.00104855,0,4517222,0 UMBRA-08,1 58292U 23174AN  24281.18884143  .00104855  00000-0  49746-2 0  9992,2 58292  97.4432 351.9992 0001937  58.5652 301.5772 15.18805173 50566,2023-174AN,58292,6887.588,94.811,510.787,508.118,1
